start=new Date('2022-01-10T00:00:00.000Z').valueOf();
sats=[{"MEAN_MOTION_DDOT":"0.0000000000000","RA_OF_ASC_NODE":"51.0300","OBJECT_NAME":"STARLINK-1410","FILE":"3268062","TIME_SYSTEM":"UTC","ELEMENT_SET_NO":"999","NORAD_CAT_ID":"45705","BSTAR":"0.00011894000000","REV_AT_EPOCH":"8959","LAUNCH_DATE":"2020-06-04","GP_ID":"193525096","ECCENTRICITY":"0.00016060","INCLINATION":"53.0546","SITE":"AFETR","MEAN_ELEMENT_THEORY":"SGP4","PERIAPSIS":"546.106","TLE_LINE1":"1 45705U 20035BA  22009.49826523  .00001490  00000-0  11894-3 0  9993","MEAN_MOTION":"15.06398593","EPHEMERIS_TYPE":"0","CLASSIFICATION_TYPE":"U","REF_FRAME":"TEME","SEMIMAJOR_AXIS":"6925.353","COUNTRY_CODE":"US","TLE_LINE2":"2 45705  53.0546  51.0300 0001606  76.0623 284.0545 15.06398593 89590","OBJECT_ID":"2020-035BA","PERIOD":"95.592","RCS_SIZE":"LARGE","CENTER_NAME":"EARTH","MEAN_MOTION_DOT":"0.00001490","DECAY_DATE":null,"MEAN_ANOMALY":"284.0545","APOAPSIS":"548.330","OBJECT_TYPE":"PAYLOAD","ARG_OF_PERICENTER":"76.0623","EPOCH":"2022-01-09T11:57:30.115872"},{"MEAN_ANOMALY":"290.4126","APOAPSIS":"548.260","OBJECT_TYPE":"PAYLOAD","ARG_OF_PERICENTER":"69.7024","EPOCH":"2022-01-09T18:07:42.700512","OBJECT_ID":"2020-035BB","PERIOD":"95.592","RCS_SIZE":"LARGE","CENTER_NAME":"EARTH","MEAN_MOTION_DOT":"-0.00000303","DECAY_DATE":null,"COUNTRY_CODE":"US","TLE_LINE2":"2 45706  53.0554  19.8673 0001496  69.7024 290.4126 15.06396508 90059","CLASSIFICATION_TYPE":"U","REF_FRAME":"TEME","SEMIMAJOR_AXIS":"6925.359","TLE_LINE1":"1 45706U 20035BB  22009.75535533 -.00000303  00000-0 -14336-5 0  9991","PERIAPSIS":"546.188","MEAN_MOTION":"15.06396508","EPHEMERIS_TYPE":"0","LAUNCH_DATE":"2020-06-04","GP_ID":"193556949","ECCENTRICITY":"0.00014960","SITE":"AFETR","INCLINATION":"53.0554","MEAN_ELEMENT_THEORY":"SGP4","NORAD_CAT_ID":"45706","BSTAR":"-0.00000143360000","REV_AT_EPOCH":"9005","RA_OF_ASC_NODE":"19.8673","MEAN_MOTION_DDOT":"0.0000000000000","OBJECT_NAME":"STARLINK-1411","ELEMENT_SET_NO":"999","FILE":"3268323","TIME_SYSTEM":"UTC"},{"MEAN_ANOMALY":"285.8675","APOAPSIS":"548.229","OBJECT_TYPE":"PAYLOAD","ARG_OF_PERICENTER":"74.2477","EPOCH":"2022-01-09T18:02:24.795168","OBJECT_ID":"2020-035BC","RCS_SIZE":"LARGE","CENTER_NAME":"EARTH","PERIOD":"95.592","MEAN_MOTION_DOT":"0.00001720","DECAY_DATE":null,"COUNTRY_CODE":"US","TLE_LINE2":"2 45707  53.0557  19.8887 0001476  74.2477 285.8675 15.06402118 90064","CLASSIFICATION_TYPE":"U","REF_FRAME":"TEME","SEMIMAJOR_AXIS":"6925.342","PERIAPSIS":"546.185","TLE_LINE1":"1 45707U 20035BC  22009.75167587  .00001720  00000-0  13431-3 0  9997","MEAN_MOTION":"15.06402118","EPHEMERIS_TYPE":"0","LAUNCH_DATE":"2020-06-04","GP_ID":"193556682","ECCENTRICITY":"0.00014760","SITE":"AFETR","INCLINATION":"53.0557","MEAN_ELEMENT_THEORY":"SGP4","NORAD_CAT_ID":"45707","BSTAR":"0.00013431000000","REV_AT_EPOCH":"9006","MEAN_MOTION_DDOT":"0.0000000000000","RA_OF_ASC_NODE":"19.8887","OBJECT_NAME":"STARLINK-1412","FILE":"3268323","ELEMENT_SET_NO":"999","TIME_SYSTEM":"UTC"},{"OBJECT_TYPE":"PAYLOAD","APOAPSIS":"548.250","MEAN_ANOMALY":"289.7958","EPOCH":"2022-01-09T17:25:15.037536","ARG_OF_PERICENTER":"70.3193","RCS_SIZE":"LARGE","PERIOD":"95.592","CENTER_NAME":"EARTH","OBJECT_ID":"2020-035BD","DECAY_DATE":null,"MEAN_MOTION_DOT":"0.00000150","COUNTRY_CODE":"US","TLE_LINE2":"2 45708  53.0552  20.0040 0001497  70.3193 289.7958 15.06400064 90065","CLASSIFICATION_TYPE":"U","SEMIMAJOR_AXIS":"6925.348","REF_FRAME":"TEME","EPHEMERIS_TYPE":"0","MEAN_MOTION":"15.06400064","TLE_LINE1":"1 45708U 20035BD  22009.72586849  .00000150  00000-0  28937-4 0  9995","PERIAPSIS":"546.177","GP_ID":"193555448","LAUNCH_DATE":"2020-06-04","MEAN_ELEMENT_THEORY":"SGP4","INCLINATION":"53.0552","SITE":"AFETR","ECCENTRICITY":"0.00014970","BSTAR":"0.00002893700000","NORAD_CAT_ID":"45708","REV_AT_EPOCH":"9006","OBJECT_NAME":"STARLINK-1418","MEAN_MOTION_DDOT":"0.0000000000000","RA_OF_ASC_NODE":"20.0040","FILE":"3268323","ELEMENT_SET_NO":"999","TIME_SYSTEM":"UTC"},{"RA_OF_ASC_NODE":"19.8345","MEAN_MOTION_DDOT":"0.0000000000000","OBJECT_NAME":"STARLINK-1421","TIME_SYSTEM":"UTC","FILE":"3268323","ELEMENT_SET_NO":"999","BSTAR":"0.00104480000000","NORAD_CAT_ID":"45709","REV_AT_EPOCH":"9002","LAUNCH_DATE":"2020-06-04","GP_ID":"193555698","ECCENTRICITY":"0.00064950","MEAN_ELEMENT_THEORY":"SGP4","INCLINATION":"53.0566","SITE":"AFETR","PERIAPSIS":"542.412","TLE_LINE1":"1 45709U 20035BE  22009.76262131  .00015361  00000-0  10448-2 0  9991","EPHEMERIS_TYPE":"0","MEAN_MOTION":"15.06499165","CLASSIFICATION_TYPE":"U","SEMIMAJOR_AXIS":"6925.045","REF_FRAME":"TEME","COUNTRY_CODE":"US","TLE_LINE2":"2 45709  53.0566  19.8345 0006495 275.7454  84.2794 15.06499165 90021","OBJECT_ID":"2020-035BE","RCS_SIZE":"LARGE","CENTER_NAME":"EARTH","PERIOD":"95.586","MEAN_MOTION_DOT":"0.00015361","DECAY_DATE":null,"MEAN_ANOMALY":"84.2794","OBJECT_TYPE":"PAYLOAD","APOAPSIS":"551.407","ARG_OF_PERICENTER":"275.7454","EPOCH":"2022-01-09T18:18:10.481184"},{"MEAN_ANOMALY":"297.7509","APOAPSIS":"548.168","OBJECT_TYPE":"PAYLOAD","ARG_OF_PERICENTER":"62.3619","EPOCH":"2022-01-09T18:13:01.063776","OBJECT_ID":"2020-035BF","PERIOD":"95.592","RCS_SIZE":"LARGE","CENTER_NAME":"EARTH","MEAN_MOTION_DOT":"-0.00000408","DECAY_DATE":null,"COUNTRY_CODE":"US","TLE_LINE2":"2 45710  53.0544  19.8519 0001371  62.3619 297.7509 15.06398477 90066","CLASSIFICATION_TYPE":"U","REF_FRAME":"TEME","SEMIMAJOR_AXIS":"6925.353","PERIAPSIS":"546.269","TLE_LINE1":"1 45710U 20035BF  22009.75904009 -.00000408  00000-0 -85069-5 0  9991","MEAN_MOTION":"15.06398477","EPHEMERIS_TYPE":"0","LAUNCH_DATE":"2020-06-04","GP_ID":"193556450","ECCENTRICITY":"0.00013710","SITE":"AFETR","INCLINATION":"53.0544","MEAN_ELEMENT_THEORY":"SGP4","NORAD_CAT_ID":"45710","BSTAR":"-0.00000850690000","REV_AT_EPOCH":"9006","RA_OF_ASC_NODE":"19.8519","MEAN_MOTION_DDOT":"0.0000000000000","OBJECT_NAME":"STARLINK-1423","TIME_SYSTEM":"UTC","FILE":"3268323","ELEMENT_SET_NO":"999"},{"ARG_OF_PERICENTER":"62.9593","EPOCH":"2022-01-09T17:46:28.812864","MEAN_ANOMALY":"297.1575","APOAPSIS":"548.408","OBJECT_TYPE":"PAYLOAD","MEAN_MOTION_DOT":"0.00001991","DECAY_DATE":null,"OBJECT_ID":"2020-035BG","RCS_SIZE":"LARGE","PERIOD":"95.592","CENTER_NAME":"EARTH","TLE_LINE2":"2 45711  53.0549  19.9411 0001751  62.9593 297.1575 15.06405943 90056","COUNTRY_CODE":"US","REF_FRAME":"TEME","SEMIMAJOR_AXIS":"6925.330","CLASSIFICATION_TYPE":"U","PERIAPSIS":"545.983","TLE_LINE1":"1 45711U 20035BG  22009.74061126  .00001991  00000-0  15251-3 0  9995","MEAN_MOTION":"15.06405943","EPHEMERIS_TYPE":"0","ECCENTRICITY":"0.00017510","INCLINATION":"53.0549","SITE":"AFETR","MEAN_ELEMENT_THEORY":"SGP4","LAUNCH_DATE":"2020-06-04","GP_ID":"193557182","REV_AT_EPOCH":"9005","NORAD_CAT_ID":"45711","BSTAR":"0.00015251000000","FILE":"3268323","ELEMENT_SET_NO":"999","TIME_SYSTEM":"UTC","RA_OF_ASC_NODE":"19.9411","MEAN_MOTION_DDOT":"0.0000000000000","OBJECT_NAME":"STARLINK-1433"},{"TLE_LINE2":"2 45712  53.0551  19.9585 0001651  72.3673 287.7496 15.06399340 90066","COUNTRY_CODE":"US","SEMIMAJOR_AXIS":"6925.351","REF_FRAME":"TEME","CLASSIFICATION_TYPE":"U","ARG_OF_PERICENTER":"72.3673","EPOCH":"2022-01-09T17:41:11.127840","MEAN_ANOMALY":"287.7496","OBJECT_TYPE":"PAYLOAD","APOAPSIS":"548.359","DECAY_DATE":null,"MEAN_MOTION_DOT":"0.00003769","OBJECT_ID":"2020-035BH","PERIOD":"95.592","RCS_SIZE":"LARGE","CENTER_NAME":"EARTH","REV_AT_EPOCH":"9006","BSTAR":"0.00027176000000","NORAD_CAT_ID":"45712","TIME_SYSTEM":"UTC","FILE":"3268323","ELEMENT_SET_NO":"999","RA_OF_ASC_NODE":"19.9585","MEAN_MOTION_DDOT":"0.0000000000000","OBJECT_NAME":"STARLINK-1434","TLE_LINE1":"1 45712U 20035BH  22009.73693435  .00003769  00000-0  27176-3 0  9993","PERIAPSIS":"546.072","EPHEMERIS_TYPE":"0","MEAN_MOTION":"15.06399340","ECCENTRICITY":"0.00016510","MEAN_ELEMENT_THEORY":"SGP4","INCLINATION":"53.0551","SITE":"AFETR","LAUNCH_DATE":"2020-06-04","GP_ID":"193555948"},{"CENTER_NAME":"EARTH","RCS_SIZE":"LARGE","PERIOD":"95.592","OBJECT_ID":"2020-035BJ","DECAY_DATE":null,"MEAN_MOTION_DOT":"0.00001187","OBJECT_TYPE":"PAYLOAD","APOAPSIS":"548.206","MEAN_ANOMALY":"289.1103","EPOCH":"2022-01-09T11:48:12.316608","ARG_OF_PERICENTER":"71.0042","CLASSIFICATION_TYPE":"U","SEMIMAJOR_AXIS":"6925.342","REF_FRAME":"TEME","COUNTRY_CODE":"US","TLE_LINE2":"2 45713  53.0538  41.0562 0001442  71.0042 289.1103 15.06402054 89737","GP_ID":"193525097","LAUNCH_DATE":"2020-06-04","MEAN_ELEMENT_THEORY":"SGP4","SITE":"AFETR","INCLINATION":"53.0538","ECCENTRICITY":"0.00014420","EPHEMERIS_TYPE":"0","MEAN_MOTION":"15.06402054","PERIAPSIS":"546.209","TLE_LINE1":"1 45713U 20035BJ  22009.49180922  .00001187  00000-0  98543-4 0  9998","OBJECT_NAME":"STARLINK-1436","RA_OF_ASC_NODE":"41.0562","MEAN_MOTION_DDOT":"0.0000000000000","ELEMENT_SET_NO":"999","FILE":"3268062","TIME_SYSTEM":"UTC","BSTAR":"0.00009854300000","NORAD_CAT_ID":"45713","REV_AT_EPOCH":"8973"},{"MEAN_MOTION_DOT":"0.00001944","DECAY_DATE":null,"CENTER_NAME":"EARTH","RCS_SIZE":"LARGE","PERIOD":"95.592","OBJECT_ID":"2020-035BK","EPOCH":"2022-01-09T17:57:06.509664","ARG_OF_PERICENTER":"73.6704","OBJECT_TYPE":"PAYLOAD","APOAPSIS":"548.326","MEAN_ANOMALY":"286.4460","SEMIMAJOR_AXIS":"6925.362","REF_FRAME":"TEME","CLASSIFICATION_TYPE":"U","TLE_LINE2":"2 45714  53.0551  19.9094 0001587  73.6704 286.4460 15.06395765 90064","COUNTRY_CODE":"US","MEAN_ELEMENT_THEORY":"SGP4","SITE":"AFETR","INCLINATION":"53.0551","ECCENTRICITY":"0.00015870","GP_ID":"193556950","LAUNCH_DATE":"2020-06-04","EPHEMERIS_TYPE":"0","MEAN_MOTION":"15.06395765","PERIAPSIS":"546.127","TLE_LINE1":"1 45714U 20035BK  22009.74799201  .00001944  00000-0  14940-3 0  9992","FILE":"3268323","ELEMENT_SET_NO":"999","TIME_SYSTEM":"UTC","OBJECT_NAME":"STARLINK-1437","RA_OF_ASC_NODE":"19.9094","MEAN_MOTION_DDOT":"0.0000000000000","REV_AT_EPOCH":"9006","BSTAR":"0.00014940000000","NORAD_CAT_ID":"45714"}];
